ABS-3A                  
1 40424U 15010A   17345.78406145 -.00000032  00000-0  00000+0 0  9991
2 40424   0.0031   4.2713 0002354 169.6786 186.0582  1.00272308 10233
